{
    "links": {
        "self": "http://www.neowsapp.com/rest/v1/neo/3177177?api_key=iIulBulltgU6a56xZRHN4H3l9WmuAYTsLGpBGhQ2"
    },
    "id": "3177177",
    "neo_reference_id": "3177177",
    "name": "(2004 EH1)",
    "designation": "2004 EH1",
    "nasa_jpl_url": "http://ssd.jpl.nasa.gov/sbdb.cgi?sstr=3177177",
    "absolute_magnitude_h": 22.4,
    "estimated_diameter": {
        "kilometers": {
            "estimated_diameter_min": 0.0880146521,
            "estimated_diameter_max": 0.1968067451
        },
        "meters": {
            "estimated_diameter_min": 88.0146520901,
            "estimated_diameter_max": 196.8067450894
        },
        "miles": {
            "estimated_diameter_min": 0.0546897524,
            "estimated_diameter_max": 0.122290004
        },
        "feet": {
            "estimated_diameter_min": 288.7619911632,
            "estimated_diameter_max": 645.6914415591
        }
    },
    "is_potentially_hazardous_asteroid": false,
    "close_approach_data": [
        {
            "close_approach_date": "2004-04-08",
            "close_approach_date_full": "2004-Apr-08 06:43",
            "epoch_date_close_approach": 1081406580000,
            "relative_velocity": {
                "kilometers_per_second": "9.7714591934",
                "kilometers_per_hour": "35177.2530963268",
                "miles_per_hour": "21857.7770697704"
            },
            "miss_distance": {
                "astronomical": "0.0577731268",
                "lunar": "22.4737463252",
                "kilometers": "8642736.712519916",
                "miles": "5370347.5668342008"
            },
            "orbiting_body": "Earth"
        },
        {
            "close_approach_date": "2041-07-05",
            "close_approach_date_full": "2041-Jul-05 20:58",
            "epoch_date_close_approach": 2256670680000,
            "relative_velocity": {
                "kilometers_per_second": "14.3850930644",
                "kilometers_per_hour": "51786.3350319142",
                "miles_per_hour": "32178.0146758024"
            },
            "miss_distance": {
                "astronomical": "0.1942217609",
                "lunar": "75.5522649901",
                "kilometers": "29055161.738289283",
                "miles": "18054040.3271987854"
            },
            "orbiting_body": "Earth"
        },
        {
            "close_approach_date": "2044-02-29",
            "close_approach_date_full": "2044-Feb-29 13:58",
            "epoch_date_close_approach": 2340367080000,
            "relative_velocity": {
                "kilometers_per_second": "24.0290853589",
                "kilometers_per_hour": "86504.7072919208",
                "miles_per_hour": "53750.6610392494"
            },
            "miss_distance": {
                "astronomical": "0.452623267",
                "lunar": "176.070450863",
                "kilometers": "67711476.65564129",
                "miles": "42073960.598338202"
            },
            "orbiting_body": "Earth"
        },
        {
            "close_approach_date": "2138-07-21",
            "close_approach_date_full": "2138-Jul-21 18:50",
            "epoch_date_close_approach": 5319024600000,
            "relative_velocity": {
                "kilometers_per_second": "20.5913916674",
                "kilometers_per_hour": "74129.0100026677",
                "miles_per_hour": "46060.8840208243"
            },
            "miss_distance": {
                "astronomical": "0.3773265283",
                "lunar": "146.7800195087",
                "kilometers": "56447244.928174721",
                "miles": "35074691.5633083098"
            },
            "orbiting_body": "Earth"
        },
        {
            "close_approach_date": "2141-03-16",
            "close_approach_date_full": "2141-Mar-16 15:21",
            "epoch_date_close_approach": 5402733660000,
            "relative_velocity": {
                "kilometers_per_second": "16.8927725235",
                "kilometers_per_hour": "60813.9810847523",
                "miles_per_hour": "37787.4428579118"
            },
            "miss_distance": {
                "astronomical": "0.2162484796",
                "lunar": "84.1206585644",
                "kilometers": "32350311.938898452",
                "miles": "20101551.7174925576"
            },
            "orbiting_body": "Earth"
        }
    ],
    "orbital_data": {
        "orbit_id": "22",
        "orbit_determination_date": "2017-04-06 09:13:08",
        "first_observation_date": "2004-03-14",
        "last_observation_date": "2004-04-09",
        "data_arc_in_days": 26,
        "observations_used": 119,
        "orbit_uncertainty": "7",
        "minimum_orbit_intersection": ".0354196",
        "jupiter_tisserand_invariant": "3.630",
        "epoch_osculation": "2459000.5",
        "eccentricity": ".5327079786002897",
        "semi_major_axis": "2.011649725270626",
        "inclination": "7.525153142272957",
        "ascending_node_longitude": "356.8029263282144",
        "orbital_period": "1042.14217094377",
        "perihelion_distance": ".9400278664698829",
        "perihelion_argument": "231.9650966722906",
        "aphelion_distance": "3.08327158407137",
        "perihelion_time": "2459384.404920740576",
        "mean_anomaly": "227.382996946139",
        "mean_motion": ".3454423110754474",
        "equinox": "J2000",
        "orbit_class": {
            "orbit_class_type": "APO",
            "orbit_class_description": "Near-Earth asteroid orbits which cross the Earth’s orbit similar to that of 1862 Apollo",
            "orbit_class_range": "a (semi-major axis) > 1.0 AU; q (perihelion) < 1.017 AU"
        }
    },
    "is_sentry_object": false
}